#cP2022  3 28  6  0  0.00000000     576 d+D   IGb14 EXT AIUB
## 2203 108000.00000000   300.00000000 59666 0.2500000000000
+   76   G01G02G03G04G05G06G07G08G09G10G11G12G13G14G15G16G17
+        G18G19G20G21G22G23G25G26G27G28G29G30G31G32R01R02R03
+        R04R05R07R08R09R12R13R14R15R17R18R19R20R21R22R24E01
+        E02E03E04E05E07E08E09E10E11E12E13E14E15E18E19E21E24
+        E25E26E27E30E31E33E34E36  0  0  0  0  0  0  0  0  0
++         6  7  6  8  7  6  6  7  6  6  8  7  7  7  7  7  7
++         8  7  7  7  7  7  6  6  6  7  7  6  7  6  8  7  7
++         7  7  7  7  7  7  8  7  7  7  7  9  9  7  8  6  5
++         6  6  6  6  6  6  6  7  7  8  7  6  6  6  7  6  6
++         5  7  6  6  6  6  6  6  0  0  0  0  0  0  0  0  0
%c M  cc GPS ccc cccc cccc cccc cccc ccccc ccccc ccccc ccccc
%c cc cc ccc ccc cccc cccc cccc cccc ccccc ccccc ccccc ccccc
%f  1.2500000  1.025000000  0.00000000000  0.000000000000000
%f  0.0000000  0.000000000  0.00000000000  0.000000000000000
%i    0    0    0    0      0      0      0      0         0
%i    0    0    0    0      0      0      0      0         0
/* Center for Orbit Determination in Europe (CODE)          
/* Ultra-rapid GRE orbits starting year-day 22087 06 hour   
/* Observed/predicted: 25/23 hours (data used up to 088G)   
/* PCV:IGS14      OL/AL:FES2014b NONE     YN ORB:CoN CLK:BRD
*  2022  3 28 11  0  0.00000000
PG01 -22034.314091 -13614.101287   6381.638533    398.290640
PG02  11125.940700  20009.195922  13998.196801   -652.710779
PG03 -13512.503030  -7538.199610  21498.044794   -182.979525
PG04 -22672.764692  -2763.457031  13634.174621   -180.382116
PG05   6676.736868  21736.913589 -13761.143146    -76.263626
PG06  -4185.441966  15115.748450  21487.555984    246.638716
PG07 -19434.617148    164.216665 -17928.427670    318.118387
PG08 -15222.527243  -9017.064868 -19950.301725    -61.623036
PG09 -25419.105278   6688.808938   3865.699230   -347.234081
PG10  11514.405967 -20902.773157 -11197.106458   -360.751928
PG11   9576.993042  21282.302649  12691.344209    -53.993611
PG12  11438.245394  12001.818048  20510.174089   -191.675166
PG13   6175.213023  14034.721822 -21851.737090    284.393391
PG14 -13054.800598  19830.223571 -11832.878515    -97.948428
PG15  16854.147489   7769.906253 -19515.839315    -73.350533
PG16  -1113.879467 -24053.464720 -10938.798715   -485.660356
PG17 -19397.477928  13999.370267  12028.303777    593.056759
PG18  19042.529077    -99.810254 -18562.940202    209.366929
PG19 -13519.662283  14964.635363  16920.890529    136.895695
PG20   2494.145226  26215.653600  -4327.567435    516.103047
PG21 -20211.002486 -17347.455322  -3210.248106    159.888668
PG22   9867.535395 -16253.564330  18876.982827    234.433848
PG23  14920.425214 -11052.493718 -18963.362326    -10.493447
PG25  15551.322375  -3008.672186  20991.492512    304.376631
PG26   4517.560536 -25944.850329   1627.744011    194.298538
PG27  -2965.559652 -14847.686595 -22002.543848    167.866097
PG28  -9186.632435  24789.010576  -3101.853184    374.787609
PG29  25826.684358  -3425.563734   5279.809326   -496.586502
PG30 -13587.216584   8685.982596 -21059.986603   -521.016662
PG31   2539.880637 -16820.234129  20151.275270   -170.916139
PG32  16164.682263 -16079.878349  13600.310761    -93.665195
PR01  -4998.969965 -10606.795804  22661.514236      7.406258
PR02 -17652.325491   6110.698769  17449.409749    513.835277
PR03 -18455.107466  17552.585574   1913.827076     53.893232
PR04  -9111.158662  18882.927653 -14502.788867    133.971713
PR05   5251.276187   9905.848451 -22897.385942     90.157780
PR07  18176.352659 -17829.727591  -1026.055375     33.199787
PR08   8811.958525 -18928.588384  14697.471366    -64.250835
PR09  12681.707533   5255.572666  21496.329140     46.773250
PR12 -10752.565428 -21073.701175  -9490.029309     17.618370
PR13 -12585.927973  -6709.853624 -21167.255813    -20.066140
PR14  -6769.311876  12984.139192 -20876.994022     75.880252
PR15   2720.701082  23995.295130  -8204.146804     97.250444
PR17 -16682.757516   4438.528487  18773.098927    513.081771
PR18     -9.464879  10739.736818  23146.456220    111.702502
PR19  15584.786052  12110.212822  16155.644044   -183.228164
PR20  24586.084592   5941.445624  -3084.714739    -67.576604
PR21  15518.700972  -4987.377358 -19627.882112   -288.851548
PR22  -1072.376571 -10943.719774 -23039.808170   -173.327702
PR24 -24735.627295  -4943.852031   3788.802754     86.457838
PE01 -12194.624479 -18620.945629 -19511.047436   -605.399287
PE02  12253.972622  18505.092807  19587.994336    289.152069
PE03  18087.361524   8184.887006 -21955.837157   -542.040352
PE04 -27413.721776   7087.040163   8640.566382   -994.209880
PE05  -2075.982231  18960.294171 -22629.096575   -196.181406
PE07  20723.364829 -18553.658994  10145.424339   -652.835566
PE08  27394.783285  -7514.280446  -8333.867851   -502.679581
PE09 -20534.826342  18623.666857 -10351.424511   -464.628097
PE10 -19813.404512   3938.655097  21630.688390   -503.195561
PE11 -11096.509727  11947.778654  24697.720453   4113.521986
PE12 -25014.796306  -4306.989472  15248.793170   4691.275545
PE13  11646.163988 -11458.843526 -24676.953234    427.618169
PE14  -1866.233453 -20520.380606 -24418.143512  -1793.965781
PE15  25032.539075   4390.094255 -15157.539265    755.109427
PE18  12297.747874  11966.244717  17824.552835  -1631.637041
PE19 -15914.215809  -9865.253522  22936.916799  -2062.140666
PE21  -1412.511774 -29225.342386  -4456.651877   -725.131433
PE24 -11628.075974  22744.951599 -14996.020306   -529.828561
PE25   1230.997279  29281.182129   4194.730823   -568.376688
PE26  -9324.869445 -20757.873466 -18928.659561   -964.187185
PE27  10876.761412 -23675.207295  14032.084743   -263.288886
PE30  16750.621254  -2951.501423  24209.520726   -384.693250
PE31 -16654.836207   4259.749359 -24095.562186   -494.200403
PE33 -23605.348180 -17576.146738  -3244.381064   -458.149526
PE34  23723.292142  17437.787228   3043.131586   -509.101061
PE36   8460.041445  20458.072851  19644.482952   -351.613441
EOF
